*******************************************************************************
 Revised: Sep 29, 2017           Kallichore / (Jupiter)                     544

 Recently discovered irregular Jovian satellite.
*******************************************************************************
 
 
*******************************************************************************
Ephemeris / WWW_USER Sun Nov 12 11:30:22 2017 Pasadena, USA      / Horizons    
*******************************************************************************
Target body name: Kallichore (544)                {source: jup341}
Center body name: Solar System Barycenter (0)     {source: DE431mx}
Center-site name: BODY CENTER
*******************************************************************************
Start time      : A.D. 2017-Jul-10 00:00:00.0000 TDB
Stop  time      : A.D. 2020-Aug-13 00:00:00.0000 TDB
Step-size       : 1440 minutes
*******************************************************************************
Center geodetic : 0.00000000,0.00000000,0.0000000 {E-lon(deg),Lat(deg),Alt(km)}
Center cylindric: 0.00000000,0.00000000,0.0000000 {E-lon(deg),Dxy(km),Dz(km)}
Center radii    : (undefined)                                                  
Output units    : KM-S                                                         
Output type     : GEOMETRIC cartesian states
Output format   : 3 (position, velocity, LT, range, range-rate)
Reference frame : ICRF/J2000.0                                                 
Coordinate systm: Ecliptic and Mean Equinox of Reference Epoch                 
*******************************************************************************
            JDTDB,            Calendar Date (TDB),                      X,                      Y,                      Z,                     VX,                     VY,                     VZ,                     LT,                     RG,                     RR,
**************************************************************************************************************************************************************************************************************************************************************************
$$SOE
2458292.500000000, A.D. 2018-Jun-23 00:00:00.0000, -5.244490341436632E+08, -6.463300338735797E+08,  7.876680067349136E+06,  8.743017270042298E+00, -6.061393660836274E+00, -3.843644799916124E-01,  2.776510556345807E+03,  8.323769243498567E+08, -8.056851278134574E-01,
2458293.500000000, A.D. 2018-Jun-24 00:00:00.0000, -5.236926780523202E+08, -6.468528504206314E+08,  7.843599886552423E+06,  8.765227016029591E+00, -6.040854167104271E+00, -3.813806498616525E-01,  2.776275732686791E+03,  8.323065259879242E+08, -8.238946212783554E-01,
2458294.500000000, A.D. 2018-Jun-25 00:00:00.0000, -5.229344026756117E+08, -6.473738957042152E+08,  7.810777454172075E+06,  8.787445084517447E+00, -6.020392123442395E+00, -3.783981002856960E-01,  2.776035671427107E+03,  8.322345574328126E+08, -8.420321179753261E-01,
2458295.500000000, A.D. 2018-Jun-26 00:00:00.0000, -5.221742073171120E+08, -6.478931763983636E+08,  7.778212654690564E+06,  8.809670951679202E+00, -6.000007121479291E+00, -3.754169442222595E-01,  2.775790393380121E+03,  8.321610249242132E+08, -8.600971746557992E-01,
2458296.500000000, A.D. 2018-Jun-27 00:00:00.0000, -5.214120913256288E+08, -6.484106991418203E+08,  7.745905362826377E+06,  8.831904094659320E+00, -5.979698751667627E+00, -3.724372943912431E-01,  2.775539919486368E+03,  8.320859347399400E+08, -8.780893531408172E-01,
2458297.500000000, A.D. 2018-Jun-28 00:00:00.0000, -5.206480540947710E+08, -6.489264705376791E+08,  7.713855443713188E+06,  8.854144001738106E+00, -5.959466597967475E+00, -3.694592591313763E-01,  2.775284270810690E+03,  8.320092931950744E+08, -8.960082307831901E-01,
2458298.500000000, A.D. 2018-Jun-29 00:00:00.0000, -5.198820950615085E+08, -6.494404971529226E+08,  7.682062753397256E+06,  8.876390180538579E+00, -5.939310242342548E+00, -3.664829409607129E-01,  2.775023468537034E+03,  8.319311066404032E+08, -9.138534020324077E-01,
2458299.500000000, A.D. 2018-Jun-30 00:00:00.0000, -5.191142137049543E+08, -6.499527855187597E+08,  7.650527139098823E+06,  8.898642144352101E+00, -5.919229275999943E+00, -3.635084429832194E-01,  2.774757533965797E+03,  8.318513814616250E+08, -9.316244610827036E-01,
2458300.500000000, A.D. 2018-Jul-01 00:00:00.0000, -5.183444095465428E+08, -6.504633421314018E+08,  7.619248438970447E+06,  8.920899401287464E+00, -5.899223294589244E+00, -3.605358710237314E-01,  2.774486488515243E+03,  8.317701240797735E+08, -9.493209988187546E-01,
2458301.500000000, A.D. 2018-Jul-02 00:00:00.0000, -5.175726821496216E+08, -6.509721734515525E+08,  7.588226482305706E+06,  8.943161478277510E+00, -5.879291878821694E+00, -3.575653224249731E-01,  2.774210353718353E+03,  8.316873409502745E+08, -9.669426328246916E-01,
2458302.500000000, A.D. 2018-Jul-03 00:00:00.0000, -5.167990311176042E+08, -6.514792859037955E+08,  7.557461090195596E+06,  8.965427908686717E+00, -5.859434623755805E+00, -3.545968958196517E-01,  2.773929151216450E+03,  8.316030385610334E+08, -9.844889767828719E-01,
2458303.500000000, A.D. 2018-Jul-04 00:00:00.0000, -5.160234560963107E+08, -6.519846858796334E+08,  7.526952074184567E+06,  8.987698207908174E+00, -5.839651134804772E+00, -3.516306975713115E-01,  2.773642902771005E+03,  8.315172234359745E+08, -1.001959628435336E+00,
2458304.500000000, A.D. 2018-Jul-05 00:00:00.0000, -5.152459567696165E+08, -6.524883797323346E+08,  7.496699238590240E+06,  9.009971930611933E+00, -5.819940988937045E+00, -3.486668167015057E-01,  2.773351630240271E+03,  8.314299021280379E+08, -1.019354235319494E+00,
2458305.500000000, A.D. 2018-Jul-06 00:00:00.0000, -5.144665328616927E+08, -6.529903737822297E+08,  7.466702378775656E+06,  9.032248617628813E+00, -5.800303765636712E+00, -3.457053474563749E-01,  2.773055355596797E+03,  8.313410812244277E+08, -1.036672437687789E+00,
2458306.500000000, A.D. 2018-Jul-07 00:00:00.0000, -5.136851841355026E+08, -6.534906743117553E+08,  7.436961282508940E+06,  9.054527837004011E+00, -5.780739064858004E+00, -3.427463797906314E-01,  2.772754100910457E+03,  8.312507673415257E+08, -1.053913879749071E+00,
2458307.500000000, A.D. 2018-Jul-08 00:00:00.0000, -5.129019103912627E+08, -6.539892875695560E+08,  7.407475729650080E+06,  9.076809147580452E+00, -5.761246479270069E+00, -3.397900054595979E-01,  2.772447888355095E+03,  8.311589671268834E+08, -1.071078208849036E+00,
2458308.500000000, A.D. 2018-Jul-09 00:00:00.0000, -5.121167114668069E+08, -6.544862197682700E+08,  7.378245492431372E+06,  9.099092124902752E+00, -5.741825592227410E+00, -3.368363094547080E-01,  2.772136740202589E+03,  8.310656872574415E+08, -1.088165093037795E+00,
2458309.500000000, A.D. 2018-Jul-10 00:00:00.0000, -5.113295872360069E+08, -6.549814770852892E+08,  7.349270335786492E+06,  9.121376354360281E+00, -5.722476003638553E+00, -3.338853771121029E-01,  2.771820678820711E+03,  8.309709344388895E+08, -1.105174196458149E+00,
2458310.500000000, A.D. 2018-Jul-11 00:00:00.0000, -5.105405376088529E+08, -6.554750656636164E+08,  7.320550017134756E+06,  9.143661414590433E+00, -5.703197314667819E+00, -3.309372964524555E-01,  2.771499726674667E+03,  8.308747154061267E+08, -1.122105181127546E+00,
2458311.500000000, A.D. 2018-Jul-12 00:00:00.0000, -5.097495625316475E+08, -6.559669916114916E+08,  7.292084286366045E+06,  9.165946889211105E+00, -5.683989119709416E+00, -3.279921528940215E-01,  2.771173906325654E+03,  8.307770369228294E+08, -1.138957720454548E+00,
2458312.500000000, A.D. 2018-Jul-13 00:00:00.0000, -5.089566619860504E+08, -6.564572610020194E+08,  7.263872886192471E+06,  9.188232376103571E+00, -5.664851012291082E+00, -3.250500274306192E-01,  2.770843240427052E+03,  8.306779057803109E+08, -1.155731500237494E+00,
2458313.500000000, A.D. 2018-Jul-14 00:00:00.0000, -5.081618359880690E+08, -6.569458798733152E+08,  7.235915552416623E+06,  9.210517480662558E+00, -5.645782588878558E+00, -3.221109995125304E-01,  2.770507751721913E+03,  8.305773287967660E+08, -1.172426211477626E+00,
2458314.500000000, A.D. 2018-Jul-15 00:00:00.0000, -5.073650845876892E+08, -6.574328542286568E+08,  7.208212013996959E+06,  9.232801811391306E+00, -5.626783445920131E+00, -3.191751478467841E-01,  2.770167463041760E+03,  8.304753128169132E+08, -1.189041549984121E+00,
2458315.500000000, A.D. 2018-Jul-16 00:00:00.0000, -5.065664078683295E+08, -6.579181900363934E+08,  7.180761993220001E+06,  9.255084987485432E+00, -5.607853178941206E+00, -3.162425477377175E-01,  2.769822397304409E+03,  8.303718647113411E+08, -1.205577221674291E+00,
2458316.500000000, A.D. 2018-Jul-17 00:00:00.0000, -5.057658059456937E+08, -6.584018932300860E+08,  7.153565206026345E+06,  9.277366641218943E+00, -5.588991388275601E+00, -3.133132713840743E-01,  2.769472577511190E+03,  8.302669913756753E+08, -1.222032939426063E+00,
2458317.500000000, A.D. 2018-Jul-18 00:00:00.0000, -5.049632789671814E+08, -6.588839697091264E+08,  7.126621362065673E+06,  9.299646403805253E+00, -5.570197682280575E+00, -3.103873930388383E-01,  2.769118026746588E+03,  8.301606997304695E+08, -1.238408411883136E+00,
2458318.500000000, A.D. 2018-Jul-19 00:00:00.0000, -5.041588271123667E+08, -6.593644253391337E+08,  7.099930164450526E+06,  9.321923901612678E+00, -5.551471668558771E+00, -3.074649886028586E-01,  2.768758768179461E+03,  8.300529967215729E+08, -1.254703348102587E+00,
2458319.500000000, A.D. 2018-Jul-20 00:00:00.0000, -5.033524505923672E+08, -6.598432659514414E+08,  7.073491310033709E+06,  9.344198782611334E+00, -5.532812946433031E+00, -3.045461257252939E-01,  2.768394825059618E+03,  8.299438893191029E+08, -1.270917479513016E+00,
2458320.500000000, A.D. 2018-Jul-21 00:00:00.0000, -5.025441496480891E+08, -6.603204973430482E+08,  7.047304489964038E+06,  9.366470695763120E+00, -5.514221127333786E+00, -3.016308741508444E-01,  2.768026220713371E+03,  8.298333845161123E+08, -1.287050531212282E+00,
